[{"OBJECT_NAME":"STARLINK-5473","OBJECT_ID":"2023-021AM","EPOCH":"2026-03-09T16:20:51.896544","MEAN_MOTION":14.98332272,"ECCENTRICITY":0.00032059,"INCLINATION":70.0014,"RA_OF_ASC_NODE":164.464,"ARG_OF_PERICENTER":269.2731,"MEAN_ANOMALY":90.8061,"EPHEMERIS_TYPE":0,"CLASSIFICATION_TYPE":"U","NORAD_CAT_ID":55663,"ELEMENT_SET_NO":999,"REV_AT_EPOCH":16927,"BSTAR":-1.0487234e-5,"MEAN_MOTION_DOT":-2.18e-6,"MEAN_MOTION_DDOT":0},{"OBJECT_NAME":"IRIDIUM 33 DEB","OBJECT_ID":"1997-051CX","EPOCH":"2026-03-09T17:43:24.588192","MEAN_MOTION":14.98094004,"ECCENTRICITY":0.00015404,"INCLINATION":86.3865,"RA_OF_ASC_NODE":350.5598,"ARG_OF_PERICENTER":95.4765,"MEAN_ANOMALY":329.7207,"EPHEMERIS_TYPE":0,"CLASSIFICATION_TYPE":"U","NORAD_CAT_ID":34088,"ELEMENT_SET_NO":999,"REV_AT_EPOCH":90041,"BSTAR":0.0032183732,"MEAN_MOTION_DOT":0.00038264,"MEAN_MOTION_DDOT":0}]
